CCSDS_OMM_VERS = 2.0
CREATION_DATE  = 
ORIGINATOR     = 

OBJECT_NAME    = CZ-2C R/B
OBJECT_ID      = 2022-132E
CENTER_NAME    = EARTH
REF_FRAME      = TEME
TIME_SYSTEM    = UTC
MEAN_ELEMENT_THEORY = SGP/SGP4

EPOCH          = 2026-01-04T06:00:25.955424
MEAN_MOTION    = 15.56440921
ECCENTRICITY   = .00187465
INCLINATION    = 97.2937
RA_OF_ASC_NODE = 5.9034
ARG_OF_PERICENTER = 337.3587
MEAN_ANOMALY   = 22.6839

EPHEMERIS_TYPE = 0
CLASSIFICATION_TYPE = U
NORAD_CAT_ID   = 54039
ELEMENT_SET_NO = 999
REV_AT_EPOCH   = 18033
BSTAR          = .56529679E-3
MEAN_MOTION_DOT = .40306E-3
MEAN_MOTION_DDOT = 0

CCSDS_OMM_VERS = 2.0
CREATION_DATE  = 
ORIGINATOR     = 

OBJECT_NAME    = GSLV R/B
OBJECT_ID      = 2022-138AN
CENTER_NAME    = EARTH
REF_FRAME      = TEME
TIME_SYSTEM    = UTC
MEAN_ELEMENT_THEORY = SGP/SGP4

EPOCH          = 2026-01-03T23:50:40.506432
MEAN_MOTION    = 14.96275599
ECCENTRICITY   = .0022977
INCLINATION    = 87.3821
RA_OF_ASC_NODE = 188.0202
ARG_OF_PERICENTER = 32.1203
MEAN_ANOMALY   = 328.1423

EPHEMERIS_TYPE = 0
CLASSIFICATION_TYPE = U
NORAD_CAT_ID   = 54149
ELEMENT_SET_NO = 999
REV_AT_EPOCH   = 17425
BSTAR          = .40456946E-3
MEAN_MOTION_DOT = .4619E-4
MEAN_MOTION_DDOT = 0

CCSDS_OMM_VERS = 2.0
CREATION_DATE  = 
ORIGINATOR     = 

OBJECT_NAME    = XRISM
OBJECT_ID      = 2023-137A
CENTER_NAME    = EARTH
REF_FRAME      = TEME
TIME_SYSTEM    = UTC
MEAN_ELEMENT_THEORY = SGP/SGP4

EPOCH          = 2026-01-04T05:40:07.923648
MEAN_MOTION    = 15.10643890
ECCENTRICITY   = .00076554
INCLINATION    = 31.0036
RA_OF_ASC_NODE = 340.2729
ARG_OF_PERICENTER = 113.9336
MEAN_ANOMALY   = 246.2105

EPHEMERIS_TYPE = 0
CLASSIFICATION_TYPE = U
NORAD_CAT_ID   = 57800
ELEMENT_SET_NO = 999
REV_AT_EPOCH   = 12803
BSTAR          = .51354205E-3
MEAN_MOTION_DOT = .8808E-4
MEAN_MOTION_DDOT = 0

CCSDS_OMM_VERS = 2.0
CREATION_DATE  = 
ORIGINATOR     = 

OBJECT_NAME    = ACS3
OBJECT_ID      = 2024-077B
CENTER_NAME    = EARTH
REF_FRAME      = TEME
TIME_SYSTEM    = UTC
MEAN_ELEMENT_THEORY = SGP/SGP4

EPOCH          = 2026-01-04T06:38:22.019136
MEAN_MOTION    = 13.86766069
ECCENTRICITY   = .0068502
INCLINATION    = 97.2511
RA_OF_ASC_NODE = 319.8471
ARG_OF_PERICENTER = 282.0070
MEAN_ANOMALY   = 77.3420

EPHEMERIS_TYPE = 0
CLASSIFICATION_TYPE = U
NORAD_CAT_ID   = 59588
ELEMENT_SET_NO = 999
REV_AT_EPOCH   = 8526
BSTAR          = .32281266E-1
MEAN_MOTION_DOT = .38482E-3
MEAN_MOTION_DDOT = 0

CCSDS_OMM_VERS = 2.0
CREATION_DATE  = 
ORIGINATOR     = 

OBJECT_NAME    = SZ-21 MODULE
OBJECT_ID      = 2025-246C
CENTER_NAME    = EARTH
REF_FRAME      = TEME
TIME_SYSTEM    = UTC
MEAN_ELEMENT_THEORY = SGP/SGP4

EPOCH          = 2026-01-04T00:42:02.479968
MEAN_MOTION    = 15.63874594
ECCENTRICITY   = .00020547
INCLINATION    = 41.4752
RA_OF_ASC_NODE = 239.9503
ARG_OF_PERICENTER = 34.0017
MEAN_ANOMALY   = 326.0955

EPHEMERIS_TYPE = 0
CLASSIFICATION_TYPE = U
NORAD_CAT_ID   = 66515
ELEMENT_SET_NO = 999
REV_AT_EPOCH   = 793
BSTAR          = .39470566E-3
MEAN_MOTION_DOT = .38002E-3
MEAN_MOTION_DDOT = 0

