CZ-2C R/B               
1 54039U 22132E   26004.25030041  .00040306  00000+0  56530-3 0  9992
2 54039  97.2937   5.9034 0018746 337.3587  22.6839 15.56440921180335
GSLV R/B                
1 54149U 22138AN  26003.99352438  .00004619  00000+0  40457-3 0  9995
2 54149  87.3821 188.0202 0022977  32.1203 328.1423 14.96275599174252
XRISM                   
1 57800U 23137A   26004.23620282  .00008808  00000+0  51354-3 0  9997
2 57800  31.0036 340.2729 0007655 113.9336 246.2105 15.10643890128032
ACS3                    
1 59588U 24077B   26004.27664374  .00038482  00000+0  32281-1 0  9997
2 59588  97.2511 319.8471 0068502 282.0070  77.3420 13.86766069 85261
SZ-21 MODULE            
1 66515U 25246C   26004.02919537  .00038002  00000+0  39471-3 0  9999
2 66515  41.4752 239.9503 0002054  34.0017 326.0955 15.63874594  7936
